start=new Date('2021-11-18T00:00:00.000Z').valueOf();
sats=[{"COUNTRY_CODE":"US","SITE":"AFETR","LAUNCH_DATE":"2021-03-14","SEMIMAJOR_AXIS":"6925.304","PERIOD":"95.591","MEAN_MOTION_DDOT":"0.0000000000000","PERIAPSIS":"546.245","EPHEMERIS_TYPE":"0","REF_FRAME":"TEME","OBJECT_ID":"2021-021AS","MEAN_MOTION":"15.06414602","ARG_OF_PERICENTER":"71.8782","MEAN_ELEMENT_THEORY":"SGP4","ECCENTRICITY":"0.00013340","TLE_LINE1":"1 47900U 21021AS  21321.83768203 -.00000589  00000-0 -20664-4 0  9998","ELEMENT_SET_NO":"999","EPOCH":"2021-11-17T20:06:15.727392","MEAN_MOTION_DOT":"-0.00000589","REV_AT_EPOCH":"3913","CENTER_NAME":"EARTH","MEAN_ANOMALY":"288.2352","RCS_SIZE":"LARGE","TLE_LINE2":"2 47900  53.0559 132.4280 0001334  71.8782 288.2352 15.06414602 39138","OBJECT_NAME":"STARLINK-2360","RA_OF_ASC_NODE":"132.4280","FILE":"3217982","DECAY_DATE":null,"TIME_SYSTEM":"UTC","NORAD_CAT_ID":"47900","OBJECT_TYPE":"PAYLOAD","INCLINATION":"53.0559","GP_ID":"189976992","CLASSIFICATION_TYPE":"U","APOAPSIS":"548.093","BSTAR":"-0.00002066400000"},{"PERIAPSIS":"546.039","MEAN_MOTION_DDOT":"0.0000000000000","EPHEMERIS_TYPE":"0","REF_FRAME":"TEME","OBJECT_ID":"2021-021AT","LAUNCH_DATE":"2021-03-14","SEMIMAJOR_AXIS":"6925.347","PERIOD":"95.592","COUNTRY_CODE":"US","SITE":"AFETR","EPOCH":"2021-11-17T17:28:22.065024","REV_AT_EPOCH":"3924","MEAN_MOTION_DOT":"0.00000847","MEAN_ANOMALY":"277.2908","CENTER_NAME":"EARTH","MEAN_MOTION":"15.06400386","ARG_OF_PERICENTER":"82.8274","MEAN_ELEMENT_THEORY":"SGP4","TLE_LINE1":"1 47901U 21021AT  21321.72803316  .00000847  00000-0  75759-4 0  9992","ELEMENT_SET_NO":"999","ECCENTRICITY":"0.00016940","DECAY_DATE":null,"NORAD_CAT_ID":"47901","TIME_SYSTEM":"UTC","TLE_LINE2":"2 47901  53.0543 122.9099 0001694  82.8274 277.2908 15.06400386 39242","RCS_SIZE":"LARGE","OBJECT_NAME":"STARLINK-2361","RA_OF_ASC_NODE":"122.9099","FILE":"3217982","INCLINATION":"53.0543","GP_ID":"189977245","CLASSIFICATION_TYPE":"U","BSTAR":"0.00007575900000","APOAPSIS":"548.386","OBJECT_TYPE":"PAYLOAD"},{"GP_ID":"189976494","INCLINATION":"53.0541","CLASSIFICATION_TYPE":"U","APOAPSIS":"548.423","BSTAR":"0.00009123300000","OBJECT_TYPE":"PAYLOAD","DECAY_DATE":null,"TIME_SYSTEM":"UTC","NORAD_CAT_ID":"47902","RCS_SIZE":"LARGE","TLE_LINE2":"2 47902  53.0541 142.0459 0001768  76.0689 284.0497 15.06404839 39102","OBJECT_NAME":"STARLINK-2362","RA_OF_ASC_NODE":"142.0459","FILE":"3217982","EPOCH":"2021-11-17T22:03:04.054752","REV_AT_EPOCH":"3910","MEAN_MOTION_DOT":"0.00001078","CENTER_NAME":"EARTH","MEAN_ANOMALY":"284.0497","MEAN_MOTION":"15.06404839","ARG_OF_PERICENTER":"76.0689","MEAN_ELEMENT_THEORY":"SGP4","ECCENTRICITY":"0.00017680","ELEMENT_SET_NO":"999","TLE_LINE1":"1 47902U 21021AU  21321.91879693  .00001078  00000-0  91233-4 0  9997","MEAN_MOTION_DDOT":"0.0000000000000","PERIAPSIS":"545.974","EPHEMERIS_TYPE":"0","REF_FRAME":"TEME","OBJECT_ID":"2021-021AU","COUNTRY_CODE":"US","SITE":"AFETR","SEMIMAJOR_AXIS":"6925.334","LAUNCH_DATE":"2021-03-14","PERIOD":"95.592"},{"CENTER_NAME":"EARTH","MEAN_ANOMALY":"280.5567","EPOCH":"2021-11-17T21:02:02.328576","MEAN_MOTION_DOT":"-0.00001017","REV_AT_EPOCH":"3961","MEAN_ELEMENT_THEORY":"SGP4","ECCENTRICITY":"0.00018640","TLE_LINE1":"1 47903U 21021AV  21321.87641584 -.00001017  00000-0 -49372-4 0  9991","ELEMENT_SET_NO":"999","MEAN_MOTION":"15.06396163","ARG_OF_PERICENTER":"79.5632","REF_FRAME":"TEME","OBJECT_ID":"2021-021AV","MEAN_MOTION_DDOT":"0.0000000000000","PERIAPSIS":"545.934","EPHEMERIS_TYPE":"0","SITE":"AFETR","COUNTRY_CODE":"US","LAUNCH_DATE":"2021-03-14","PERIOD":"95.592","SEMIMAJOR_AXIS":"6925.360","APOAPSIS":"548.516","BSTAR":"-0.00004937200000","GP_ID":"189976744","INCLINATION":"53.0560","CLASSIFICATION_TYPE":"U","OBJECT_TYPE":"PAYLOAD","TIME_SYSTEM":"UTC","NORAD_CAT_ID":"47903","DECAY_DATE":null,"FILE":"3217982","RCS_SIZE":"LARGE","TLE_LINE2":"2 47903  53.0560 122.2526 0001864  79.5632 280.5567 15.06396163 39617","RA_OF_ASC_NODE":"122.2526","OBJECT_NAME":"STARLINK-2363"},{"LAUNCH_DATE":"2021-03-14","SEMIMAJOR_AXIS":"6925.346","PERIOD":"95.592","COUNTRY_CODE":"US","SITE":"AFETR","OBJECT_ID":"2021-021AW","REF_FRAME":"TEME","EPHEMERIS_TYPE":"0","PERIAPSIS":"546.055","MEAN_MOTION_DDOT":"0.0000000000000","TLE_LINE1":"1 47904U 21021AW  21321.87272869  .00000348  00000-0  42272-4 0  9994","ELEMENT_SET_NO":"999","ECCENTRICITY":"0.00016690","MEAN_ELEMENT_THEORY":"SGP4","ARG_OF_PERICENTER":"94.3651","MEAN_MOTION":"15.06400904","MEAN_ANOMALY":"265.7528","CENTER_NAME":"EARTH","MEAN_MOTION_DOT":"0.00000348","REV_AT_EPOCH":"3925","EPOCH":"2021-11-17T20:56:43.758816","FILE":"3217982","OBJECT_NAME":"STARLINK-2364","RA_OF_ASC_NODE":"122.2597","TLE_LINE2":"2 47904  53.0549 122.2597 0001669  94.3651 265.7528 15.06400904 39253","RCS_SIZE":"LARGE","NORAD_CAT_ID":"47904","TIME_SYSTEM":"UTC","DECAY_DATE":null,"OBJECT_TYPE":"PAYLOAD","BSTAR":"0.00004227200000","APOAPSIS":"548.367","CLASSIFICATION_TYPE":"U","INCLINATION":"53.0549","GP_ID":"189977493"},{"OBJECT_TYPE":"PAYLOAD","APOAPSIS":"548.334","BSTAR":"0.00003945200000","CLASSIFICATION_TYPE":"U","GP_ID":"189977746","INCLINATION":"53.0556","FILE":"3217982","RA_OF_ASC_NODE":"122.2807","OBJECT_NAME":"STARLINK-2365","RCS_SIZE":"LARGE","TLE_LINE2":"2 47905  53.0556 122.2807 0001556  86.8655 273.2512 15.06386028 39382","TIME_SYSTEM":"UTC","NORAD_CAT_ID":"47905","DECAY_DATE":null,"ECCENTRICITY":"0.00015560","ELEMENT_SET_NO":"999","TLE_LINE1":"1 47905U 21021AX  21321.86904328  .00000306  00000-0  39452-4 0  9996","MEAN_ELEMENT_THEORY":"SGP4","ARG_OF_PERICENTER":"86.8655","MEAN_MOTION":"15.06386028","CENTER_NAME":"EARTH","MEAN_ANOMALY":"273.2512","REV_AT_EPOCH":"3938","MEAN_MOTION_DOT":"0.00000306","EPOCH":"2021-11-17T20:51:25.339392","COUNTRY_CODE":"US","SITE":"AFETR","LAUNCH_DATE":"2021-03-14","SEMIMAJOR_AXIS":"6925.391","PERIOD":"95.593","OBJECT_ID":"2021-021AX","REF_FRAME":"TEME","EPHEMERIS_TYPE":"0","MEAN_MOTION_DDOT":"0.0000000000000","PERIAPSIS":"546.179"},{"FILE":"3217982","RCS_SIZE":"LARGE","TLE_LINE2":"2 47906  53.0521  70.3940 0009042 311.3144  48.7095 15.71458678 40097","RA_OF_ASC_NODE":"70.3940","OBJECT_NAME":"STARLINK-2366","TIME_SYSTEM":"UTC","NORAD_CAT_ID":"47906","DECAY_DATE":null,"OBJECT_TYPE":"PAYLOAD","APOAPSIS":"360.817","BSTAR":"-0.00008547900000","GP_ID":"189975994","INCLINATION":"53.0521","CLASSIFICATION_TYPE":"U","SITE":"AFETR","COUNTRY_CODE":"US","LAUNCH_DATE":"2021-03-14","PERIOD":"91.635","SEMIMAJOR_AXIS":"6732.864","REF_FRAME":"TEME","OBJECT_ID":"2021-021AY","MEAN_MOTION_DDOT":"0.0000000000000","PERIAPSIS":"348.641","EPHEMERIS_TYPE":"0","MEAN_ELEMENT_THEORY":"SGP4","ECCENTRICITY":"0.00090420","TLE_LINE1":"1 47906U 21021AY  21321.72944822 -.00011773  00000-0 -85479-4 0  9997","ELEMENT_SET_NO":"999","MEAN_MOTION":"15.71458678","ARG_OF_PERICENTER":"311.3144","CENTER_NAME":"EARTH","MEAN_ANOMALY":"48.7095","EPOCH":"2021-11-17T17:30:24.326208","REV_AT_EPOCH":"4009","MEAN_MOTION_DOT":"-0.00011773"},{"SITE":"AFETR","COUNTRY_CODE":"US","LAUNCH_DATE":"2021-03-14","SEMIMAJOR_AXIS":"6925.373","PERIOD":"95.593","REF_FRAME":"TEME","OBJECT_ID":"2021-021AZ","MEAN_MOTION_DDOT":"0.0000000000000","PERIAPSIS":"546.186","EPHEMERIS_TYPE":"0","MEAN_ELEMENT_THEORY":"SGP4","ECCENTRICITY":"0.00015190","ELEMENT_SET_NO":"999","TLE_LINE1":"1 47907U 21021AZ  21321.87828178  .00000755  00000-0  69575-4 0  9994","MEAN_MOTION":"15.06391967","ARG_OF_PERICENTER":"84.6087","CENTER_NAME":"EARTH","MEAN_ANOMALY":"275.5076","EPOCH":"2021-11-17T21:04:43.545792","MEAN_MOTION_DOT":"0.00000755","REV_AT_EPOCH":"3895","FILE":"3217982","RCS_SIZE":"LARGE","TLE_LINE2":"2 47907  53.0557 142.2446 0001519  84.6087 275.5076 15.06391967 38950","OBJECT_NAME":"STARLINK-2367","RA_OF_ASC_NODE":"142.2446","TIME_SYSTEM":"UTC","NORAD_CAT_ID":"47907","DECAY_DATE":null,"OBJECT_TYPE":"PAYLOAD","APOAPSIS":"548.290","BSTAR":"0.00006957500000","INCLINATION":"53.0557","GP_ID":"189976244","CLASSIFICATION_TYPE":"U"},{"LAUNCH_DATE":"2021-03-14","SEMIMAJOR_AXIS":"6925.341","PERIOD":"95.592","SITE":"AFETR","COUNTRY_CODE":"US","REF_FRAME":"TEME","OBJECT_ID":"2021-021BA","PERIAPSIS":"545.918","MEAN_MOTION_DDOT":"0.0000000000000","EPHEMERIS_TYPE":"0","MEAN_ELEMENT_THEORY":"SGP4","ELEMENT_SET_NO":"999","TLE_LINE1":"1 47908U 21021BA  21321.81928150  .00000364  00000-0  43346-4 0  9994","ECCENTRICITY":"0.00018600","MEAN_MOTION":"15.06402413","ARG_OF_PERICENTER":"83.8168","MEAN_ANOMALY":"276.3032","CENTER_NAME":"EARTH","EPOCH":"2021-11-17T19:39:45.921600","MEAN_MOTION_DOT":"0.00000364","REV_AT_EPOCH":"3897","FILE":"3217982","TLE_LINE2":"2 47908  53.0554 142.5041 0001860  83.8168 276.3032 15.06402413 38974","RCS_SIZE":"LARGE","OBJECT_NAME":"STARLINK-2368","RA_OF_ASC_NODE":"142.5041","NORAD_CAT_ID":"47908","TIME_SYSTEM":"UTC","DECAY_DATE":null,"OBJECT_TYPE":"PAYLOAD","BSTAR":"0.00004334600000","APOAPSIS":"548.494","INCLINATION":"53.0554","GP_ID":"189976993","CLASSIFICATION_TYPE":"U"},{"COUNTRY_CODE":"US","SITE":"AFETR","SEMIMAJOR_AXIS":"6925.392","LAUNCH_DATE":"2021-03-14","PERIOD":"95.593","EPHEMERIS_TYPE":"0","MEAN_MOTION_DDOT":"0.0000000000000","PERIAPSIS":"546.265","OBJECT_ID":"2021-021BB","REF_FRAME":"TEME","ARG_OF_PERICENTER":"92.3104","MEAN_MOTION":"15.06385936","ECCENTRICITY":"0.00014320","TLE_LINE1":"1 47909U 21021BB  21321.83495092  .00000335  00000-0  41395-4 0  9991","ELEMENT_SET_NO":"999","MEAN_ELEMENT_THEORY":"SGP4","REV_AT_EPOCH":"3928","MEAN_MOTION_DOT":"0.00000335","EPOCH":"2021-11-17T20:02:19.759488","CENTER_NAME":"EARTH","MEAN_ANOMALY":"267.8049","OBJECT_NAME":"STARLINK-2369","RA_OF_ASC_NODE":"132.4385","RCS_SIZE":"MEDIUM","TLE_LINE2":"2 47909  53.0560 132.4385 0001432  92.3104 267.8049 15.06385936 39289","FILE":"3217982","DECAY_DATE":null,"TIME_SYSTEM":"UTC","NORAD_CAT_ID":"47909","OBJECT_TYPE":"PAYLOAD","CLASSIFICATION_TYPE":"U","GP_ID":"189977246","INCLINATION":"53.0560","APOAPSIS":"548.248","BSTAR":"0.00004139500000"}];
